STARLINK-1967
1 17568C 21009W   21326.13574069  .00009890  00000-0  66270-3 0  3265
2 17568  53.0530 243.1365 0001902  69.3923  72.0126 15.06383593    18
